RAISE-4                 
1 67073U 25297B   26012.30311449  .00005700  00000+0  37917-3 0  9995
2 67073  97.4863 164.0344 0012118 207.8530 152.2051 15.07478371  4397
ELECTRON KICK STAGE R/B 
1 67074U 25297C   26012.21236931  .00610396  12688-3  19583-2 0  9998
2 67074  97.4746 166.4792 0134551 157.2820 203.4479 15.77712332  4542
STARLINK-36230          
1 67075U 25298A   26012.83337963  .00078600  00000+0  17823-2 0  9997
2 67075  69.9992 163.2538 0003322 276.4786  25.0487 15.42673317  5975
STARLINK-36240          
1 67076U 25298B   26012.83337963  .00076740  00000+0  17406-2 0  9998
2 67076  69.9992 163.2284 0003279 273.6657  49.8618 15.42675034  5979
STARLINK-36243          
1 67077U 25298C   26012.72253272  .00063623  00000+0  14434-2 0  9991
2 67077  70.0001 163.6053 0003396 275.9263  84.1532 15.42730529  4630
STARLINK-36236          
1 67078U 25298D   26012.84807281  .00038680  00000+0  88184-3 0  9999
2 67078  69.9994 163.2391 0003376 275.5149  84.5648 15.42724419  4652
STARLINK-36159          
1 67079U 25298E   26012.82843762  .00037487  00000+0  85451-3 0  9990
2 67079  69.9990 163.5796 0003600 271.3835  88.6935 15.42736810  4648
STARLINK-36158          
1 67080U 25298F   26012.72649328  .00024899  00000+0  56976-3 0  9996
2 67080  70.0002 163.6182 0004022 273.6526  86.4196 15.42728162  4633
STARLINK-35864          
1 67081U 25298G   26012.73063840  .00042335  00000+0  96442-3 0  9994
2 67081  70.0012 163.6344 0003243 272.5720  87.5090 15.42723882  4632
STARLINK-36035          
1 67082U 25298H   26012.73459963  .00042842  00000+0  97571-3 0  9997
2 67082  70.0003 163.6497 0003705 277.2571  82.8189 15.42727553  4637
STARLINK-36170          
1 67083U 25298J   26011.84495702 -.00270212  00000+0 -46440-2 0  9994
2 67083  70.0015 165.7547 0005013 308.2481  51.8254 15.51877177  4502
STARLINK-36166          
1 67084U 25298K   26012.83337963  .00080077  00000+0  18165-2 0  9998
2 67084  69.9996 163.1019 0003309 276.3393 157.1561 15.42656087  5919
