CCSDS_OMM_VERS = 2.0
CREATION_DATE  = 
ORIGINATOR     = 

OBJECT_NAME    = RAISE-4
OBJECT_ID      = 2025-297B
CENTER_NAME    = EARTH
REF_FRAME      = TEME
TIME_SYSTEM    = UTC
MEAN_ELEMENT_THEORY = SGP/SGP4

EPOCH          = 2026-01-12T07:16:29.091936
MEAN_MOTION    = 15.07478371
ECCENTRICITY   = .0012118
INCLINATION    = 97.4863
RA_OF_ASC_NODE = 164.0344
ARG_OF_PERICENTER = 207.8530
MEAN_ANOMALY   = 152.2051

EPHEMERIS_TYPE = 0
CLASSIFICATION_TYPE = U
NORAD_CAT_ID   = 67073
ELEMENT_SET_NO = 999
REV_AT_EPOCH   = 439
BSTAR          = .37916584E-3
MEAN_MOTION_DOT = .57E-4
MEAN_MOTION_DDOT = 0

CCSDS_OMM_VERS = 2.0
CREATION_DATE  = 
ORIGINATOR     = 

OBJECT_NAME    = ELECTRON KICK STAGE R/B
OBJECT_ID      = 2025-297C
CENTER_NAME    = EARTH
REF_FRAME      = TEME
TIME_SYSTEM    = UTC
MEAN_ELEMENT_THEORY = SGP/SGP4

EPOCH          = 2026-01-12T05:05:48.708384
MEAN_MOTION    = 15.77712332
ECCENTRICITY   = .01345511
INCLINATION    = 97.4746
RA_OF_ASC_NODE = 166.4792
ARG_OF_PERICENTER = 157.2820
MEAN_ANOMALY   = 203.4479

EPHEMERIS_TYPE = 0
CLASSIFICATION_TYPE = U
NORAD_CAT_ID   = 67074
ELEMENT_SET_NO = 999
REV_AT_EPOCH   = 454
BSTAR          = .19582911E-2
MEAN_MOTION_DOT = .610396E-2
MEAN_MOTION_DDOT = .12688406E-3

CCSDS_OMM_VERS = 2.0
CREATION_DATE  = 
ORIGINATOR     = 

OBJECT_NAME    = STARLINK-36230
OBJECT_ID      = 2025-298A
CENTER_NAME    = EARTH
REF_FRAME      = TEME
TIME_SYSTEM    = UTC
MEAN_ELEMENT_THEORY = SGP/SGP4

EPOCH          = 2026-01-12T20:00:04.000032
MEAN_MOTION    = 15.42673317
ECCENTRICITY   = .0003322
INCLINATION    = 69.9992
RA_OF_ASC_NODE = 163.2538
ARG_OF_PERICENTER = 276.4786
MEAN_ANOMALY   = 25.0487

EPHEMERIS_TYPE = 0
CLASSIFICATION_TYPE = U
NORAD_CAT_ID   = 67075
ELEMENT_SET_NO = 999
REV_AT_EPOCH   = 597
BSTAR          = .17823E-2
MEAN_MOTION_DOT = .786E-3
MEAN_MOTION_DDOT = 0

CCSDS_OMM_VERS = 2.0
CREATION_DATE  = 
ORIGINATOR     = 

OBJECT_NAME    = STARLINK-36240
OBJECT_ID      = 2025-298B
CENTER_NAME    = EARTH
REF_FRAME      = TEME
TIME_SYSTEM    = UTC
MEAN_ELEMENT_THEORY = SGP/SGP4

EPOCH          = 2026-01-12T20:00:04.000032
MEAN_MOTION    = 15.42675034
ECCENTRICITY   = .0003279
INCLINATION    = 69.9992
RA_OF_ASC_NODE = 163.2284
ARG_OF_PERICENTER = 273.6657
MEAN_ANOMALY   = 49.8618

EPHEMERIS_TYPE = 0
CLASSIFICATION_TYPE = U
NORAD_CAT_ID   = 67076
ELEMENT_SET_NO = 999
REV_AT_EPOCH   = 597
BSTAR          = .17406E-2
MEAN_MOTION_DOT = .7674E-3
MEAN_MOTION_DDOT = 0

CCSDS_OMM_VERS = 2.0
CREATION_DATE  = 
ORIGINATOR     = 

OBJECT_NAME    = STARLINK-36243
OBJECT_ID      = 2025-298C
CENTER_NAME    = EARTH
REF_FRAME      = TEME
TIME_SYSTEM    = UTC
MEAN_ELEMENT_THEORY = SGP/SGP4

EPOCH          = 2026-01-12T17:20:26.827008
MEAN_MOTION    = 15.42730529
ECCENTRICITY   = .0003396
INCLINATION    = 70.0001
RA_OF_ASC_NODE = 163.6053
ARG_OF_PERICENTER = 275.9263
MEAN_ANOMALY   = 84.1532

EPHEMERIS_TYPE = 0
CLASSIFICATION_TYPE = U
NORAD_CAT_ID   = 67077
ELEMENT_SET_NO = 999
REV_AT_EPOCH   = 463
BSTAR          = .14434E-2
MEAN_MOTION_DOT = .63623E-3
MEAN_MOTION_DDOT = 0

CCSDS_OMM_VERS = 2.0
CREATION_DATE  = 
ORIGINATOR     = 

OBJECT_NAME    = STARLINK-36236
OBJECT_ID      = 2025-298D
CENTER_NAME    = EARTH
REF_FRAME      = TEME
TIME_SYSTEM    = UTC
MEAN_ELEMENT_THEORY = SGP/SGP4

EPOCH          = 2026-01-12T20:21:13.490784
MEAN_MOTION    = 15.42724419
ECCENTRICITY   = .0003376
INCLINATION    = 69.9994
RA_OF_ASC_NODE = 163.2391
ARG_OF_PERICENTER = 275.5149
MEAN_ANOMALY   = 84.5648

EPHEMERIS_TYPE = 0
CLASSIFICATION_TYPE = U
NORAD_CAT_ID   = 67078
ELEMENT_SET_NO = 999
REV_AT_EPOCH   = 465
BSTAR          = .88184E-3
MEAN_MOTION_DOT = .3868E-3
MEAN_MOTION_DDOT = 0

CCSDS_OMM_VERS = 2.0
CREATION_DATE  = 
ORIGINATOR     = 

OBJECT_NAME    = STARLINK-36159
OBJECT_ID      = 2025-298E
CENTER_NAME    = EARTH
REF_FRAME      = TEME
TIME_SYSTEM    = UTC
MEAN_ELEMENT_THEORY = SGP/SGP4

EPOCH          = 2026-01-12T19:52:57.010368
MEAN_MOTION    = 15.42736810
ECCENTRICITY   = .00036
INCLINATION    = 69.9990
RA_OF_ASC_NODE = 163.5796
ARG_OF_PERICENTER = 271.3835
MEAN_ANOMALY   = 88.6935

EPHEMERIS_TYPE = 0
CLASSIFICATION_TYPE = U
NORAD_CAT_ID   = 67079
ELEMENT_SET_NO = 999
REV_AT_EPOCH   = 464
BSTAR          = .85451E-3
MEAN_MOTION_DOT = .37487E-3
MEAN_MOTION_DDOT = 0

CCSDS_OMM_VERS = 2.0
CREATION_DATE  = 
ORIGINATOR     = 

OBJECT_NAME    = STARLINK-36158
OBJECT_ID      = 2025-298F
CENTER_NAME    = EARTH
REF_FRAME      = TEME
TIME_SYSTEM    = UTC
MEAN_ELEMENT_THEORY = SGP/SGP4

EPOCH          = 2026-01-12T17:26:09.019392
MEAN_MOTION    = 15.42728162
ECCENTRICITY   = .0004022
INCLINATION    = 70.0002
RA_OF_ASC_NODE = 163.6182
ARG_OF_PERICENTER = 273.6526
MEAN_ANOMALY   = 86.4196

EPHEMERIS_TYPE = 0
CLASSIFICATION_TYPE = U
NORAD_CAT_ID   = 67080
ELEMENT_SET_NO = 999
REV_AT_EPOCH   = 463
BSTAR          = .56976E-3
MEAN_MOTION_DOT = .24899E-3
MEAN_MOTION_DDOT = 0

CCSDS_OMM_VERS = 2.0
CREATION_DATE  = 
ORIGINATOR     = 

OBJECT_NAME    = STARLINK-35864
OBJECT_ID      = 2025-298G
CENTER_NAME    = EARTH
REF_FRAME      = TEME
TIME_SYSTEM    = UTC
MEAN_ELEMENT_THEORY = SGP/SGP4

EPOCH          = 2026-01-12T17:32:07.157760
MEAN_MOTION    = 15.42723882
ECCENTRICITY   = .0003243
INCLINATION    = 70.0012
RA_OF_ASC_NODE = 163.6344
ARG_OF_PERICENTER = 272.5720
MEAN_ANOMALY   = 87.5090

EPHEMERIS_TYPE = 0
CLASSIFICATION_TYPE = U
NORAD_CAT_ID   = 67081
ELEMENT_SET_NO = 999
REV_AT_EPOCH   = 463
BSTAR          = .96442E-3
MEAN_MOTION_DOT = .42335E-3
MEAN_MOTION_DDOT = 0

CCSDS_OMM_VERS = 2.0
CREATION_DATE  = 
ORIGINATOR     = 

OBJECT_NAME    = STARLINK-36035
OBJECT_ID      = 2025-298H
CENTER_NAME    = EARTH
REF_FRAME      = TEME
TIME_SYSTEM    = UTC
MEAN_ELEMENT_THEORY = SGP/SGP4

EPOCH          = 2026-01-12T17:37:49.408032
MEAN_MOTION    = 15.42727553
ECCENTRICITY   = .0003705
INCLINATION    = 70.0003
RA_OF_ASC_NODE = 163.6497
ARG_OF_PERICENTER = 277.2571
MEAN_ANOMALY   = 82.8189

EPHEMERIS_TYPE = 0
CLASSIFICATION_TYPE = U
NORAD_CAT_ID   = 67082
ELEMENT_SET_NO = 999
REV_AT_EPOCH   = 463
BSTAR          = .97571E-3
MEAN_MOTION_DOT = .42842E-3
MEAN_MOTION_DDOT = 0

CCSDS_OMM_VERS = 2.0
CREATION_DATE  = 
ORIGINATOR     = 

OBJECT_NAME    = STARLINK-36170
OBJECT_ID      = 2025-298J
CENTER_NAME    = EARTH
REF_FRAME      = TEME
TIME_SYSTEM    = UTC
MEAN_ELEMENT_THEORY = SGP/SGP4

EPOCH          = 2026-01-11T20:16:44.286528
MEAN_MOTION    = 15.51877177
ECCENTRICITY   = .00050138
INCLINATION    = 70.0015
RA_OF_ASC_NODE = 165.7547
ARG_OF_PERICENTER = 308.2481
MEAN_ANOMALY   = 51.8254

EPHEMERIS_TYPE = 0
CLASSIFICATION_TYPE = U
NORAD_CAT_ID   = 67083
ELEMENT_SET_NO = 999
REV_AT_EPOCH   = 450
BSTAR          = -.46439926E-2
MEAN_MOTION_DOT = -.270212E-2
MEAN_MOTION_DDOT = 0

CCSDS_OMM_VERS = 2.0
CREATION_DATE  = 
ORIGINATOR     = 

OBJECT_NAME    = STARLINK-36166
OBJECT_ID      = 2025-298K
CENTER_NAME    = EARTH
REF_FRAME      = TEME
TIME_SYSTEM    = UTC
MEAN_ELEMENT_THEORY = SGP/SGP4

EPOCH          = 2026-01-12T20:00:04.000032
MEAN_MOTION    = 15.42656087
ECCENTRICITY   = .0003309
INCLINATION    = 69.9996
RA_OF_ASC_NODE = 163.1019
ARG_OF_PERICENTER = 276.3393
MEAN_ANOMALY   = 157.1561

EPHEMERIS_TYPE = 0
CLASSIFICATION_TYPE = U
NORAD_CAT_ID   = 67084
ELEMENT_SET_NO = 999
REV_AT_EPOCH   = 591
BSTAR          = .18165E-2
MEAN_MOTION_DOT = .80077E-3
MEAN_MOTION_DDOT = 0

